STARLINK-1887_new
1 17170C 20088BA  21326.13196899  .00001486  00000-0  99587-4 0  3262
2 17170  53.0517 143.1536 0001976  74.4060 316.3573 15.06396872    15
STARLINK-1887_old
1 27170C 20088BA  21325.13699662  .00001670  00000-0  11190-3 0  3254
2 27170  53.0516 147.6204 0002004  72.2947 319.7215 15.06393599    11
